{"type": "FeatureCollection", "features": [{"type": "Feature", "properties": {"norad_id": 2807, "name": "OPS 7218 (TRANSIT 16)", "group": "nnss", "lat": 16.494875830289736, "lon": -5.623981840611337, "alt_km": 1077.8790263222972, "timestamp": "2025-12-04T19:33:59.872598+00:00", "meta": {"OBJECT_NAME": "OPS 7218 (TRANSIT 16)", "OBJECT_ID": "1967-048A", "EPOCH": "2025-12-04T07:05:44.140128", "MEAN_MOTION": 13.50719871, "ECCENTRICITY": 0.00215238, "INCLINATION": 89.6735, "RA_OF_ASC_NODE": 354.2964, "ARG_OF_PERICENTER": 136.8182, "MEAN_ANOMALY": 234.7725, "EPHEMERIS_TYPE": 0, "CLASSIFICATION_TYPE": "U", "NORAD_CAT_ID": 2807, "ELEMENT_SET_NO": 999, "REV_AT_EPOCH": 88162, "BSTAR": 0.00026566985, "MEAN_MOTION_DOT": 1.81e-06, "MEAN_MOTION_DDOT": 0}, "tle": {"line1": "1 02807U 67048A   25338.29564977  .00000181  00000+0  26567-3 0  9990", "line2": "2 02807  89.6735 354.2964 0021523 136.8182 234.7725 13.50719871881629"}}, "geometry": {"type": "Point", "coordinates": [-5.623981840611337, 16.494875830289736]}}, {"type": "Feature", "properties": {"norad_id": 2965, "name": "OPS 4947 (TRANSIT 17)", "group": "nnss", "lat": 3.8822305764377707, "lon": 25.090761197542108, "alt_km": 1071.0503085805349, "timestamp": "2025-12-04T19:33:59.872618+00:00", "meta": {"OBJECT_NAME": "OPS 4947 (TRANSIT 17)", "OBJECT_ID": "1967-092A", "EPOCH": "2025-12-04T05:41:34.423008", "MEAN_MOTION": 13.53450473, "ECCENTRICITY": 0.00458088, "INCLINATION": 89.2506, "RA_OF_ASC_NODE": 25.0838, "ARG_OF_PERICENTER": 260.0683, "MEAN_ANOMALY": 168.4895, "EPHEMERIS_TYPE": 0, "CLASSIFICATION_TYPE": "U", "NORAD_CAT_ID": 2965, "ELEMENT_SET_NO": 999, "REV_AT_EPOCH": 86982, "BSTAR": 0.00029150481, "MEAN_MOTION_DOT": 2.08e-06, "MEAN_MOTION_DDOT": 0}, "tle": {"line1": "1 02965U 67092A   25338.23720397  .00000208  00000+0  29150-3 0  9999", "line2": "2 02965  89.2506  25.0838 0045808 260.0683 168.4895 13.53450473869829"}}, "geometry": {"type": "Point", "coordinates": [25.090761197542108, 3.8822305764377707]}}, {"type": "Feature", "properties": {"norad_id": 3133, "name": "OPS 7034 (TRANSIT 18)", "group": "nnss", "lat": -26.793896871568496, "lon": 93.60307059985807, "alt_km": 1019.5357115728129, "timestamp": "2025-12-04T19:33:59.872629+00:00", "meta": {"OBJECT_NAME": "OPS 7034 (TRANSIT 18)", "OBJECT_ID": "1968-012A", "EPOCH": "2025-12-04T08:29:21.451200", "MEAN_MOTION": 13.51562895, "ECCENTRICITY": 0.00730726, "INCLINATION": 90.0271, "RA_OF_ASC_NODE": 273.6155, "ARG_OF_PERICENTER": 193.5437, "MEAN_ANOMALY": 288.5138, "EPHEMERIS_TYPE": 0, "CLASSIFICATION_TYPE": "U", "NORAD_CAT_ID": 3133, "ELEMENT_SET_NO": 999, "REV_AT_EPOCH": 56805, "BSTAR": 0.00023367647, "MEAN_MOTION_DOT": 1.64e-06, "MEAN_MOTION_DDOT": 0}, "tle": {"line1": "1 03133U 68012A   25338.35372050  .00000164  00000+0  23368-3 0  9998", "line2": "2 03133  90.0271 273.6155 0073072 193.5437 288.5138 13.51562895568055"}}, "geometry": {"type": "Point", "coordinates": [93.60307059985807, -26.793896871568496]}}, {"type": "Feature", "properties": {"norad_id": 4507, "name": "NNSS 19 (TRANSIT 19)", "group": "nnss", "lat": -3.7614421717736817, "lon": 54.52784671452352, "alt_km": 1156.3882485672366, "timestamp": "2025-12-04T19:33:59.872640+00:00", "meta": {"OBJECT_NAME": "NNSS 19 (TRANSIT 19)", "OBJECT_ID": "1970-067A", "EPOCH": "2025-12-04T06:12:26.286048", "MEAN_MOTION": 13.51311721, "ECCENTRICITY": 0.01711231, "INCLINATION": 90.0056, "RA_OF_ASC_NODE": 234.5279, "ARG_OF_PERICENTER": 318.1321, "MEAN_ANOMALY": 40.6845, "EPHEMERIS_TYPE": 0, "CLASSIFICATION_TYPE": "U", "NORAD_CAT_ID": 4507, "ELEMENT_SET_NO": 999, "REV_AT_EPOCH": 72107, "BSTAR": 0.00033885106, "MEAN_MOTION_DOT": 2.49e-06, "MEAN_MOTION_DDOT": 0}, "tle": {"line1": "1 04507U 70067A   25338.25863757  .00000249  00000+0  33885-3 0  9994", "line2": "2 04507  90.0056 234.5279 0171123 318.1321  40.6845 13.51311721721073"}}, "geometry": {"type": "Point", "coordinates": [54.52784671452352, -3.7614421717736817]}}, {"type": "Feature", "properties": {"norad_id": 6909, "name": "NNSS 20 (TRANSIT 20)", "group": "nnss", "lat": 43.030412882884214, "lon": -104.69225342475104, "alt_km": 929.6023943555119, "timestamp": "2025-12-04T19:33:59.872651+00:00", "meta": {"OBJECT_NAME": "NNSS 20 (TRANSIT 20)", "OBJECT_ID": "1973-081A", "EPOCH": "2025-12-04T07:06:04.212576", "MEAN_MOTION": 13.71428658, "ECCENTRICITY": 0.01564837, "INCLINATION": 89.8557, "RA_OF_ASC_NODE": 255.1808, "ARG_OF_PERICENTER": 103.3213, "MEAN_ANOMALY": 258.5452, "EPHEMERIS_TYPE": 0, "CLASSIFICATION_TYPE": "U", "NORAD_CAT_ID": 6909, "ELEMENT_SET_NO": 999, "REV_AT_EPOCH": 80245, "BSTAR": 0.000354009, "MEAN_MOTION_DOT": 3.59e-06, "MEAN_MOTION_DDOT": 0}, "tle": {"line1": "1 06909U 73081A   25338.29588209  .00000359  00000+0  35401-3 0  9999", "line2": "2 06909  89.8557 255.1808 0156483 103.3213 258.5452 13.71428658802452"}}, "geometry": {"type": "Point", "coordinates": [-104.69225342475104, 43.030412882884214]}}, {"type": "Feature", "properties": {"norad_id": 10457, "name": "TRANSAT", "group": "nnss", "lat": -77.82924649015541, "lon": -99.49057152194283, "alt_km": 1070.5723595131594, "timestamp": "2025-12-04T19:33:59.872661+00:00", "meta": {"OBJECT_NAME": "TRANSAT", "OBJECT_ID": "1977-106A", "EPOCH": "2025-12-04T07:54:30.025152", "MEAN_MOTION": 13.48941689, "ECCENTRICITY": 0.00246344, "INCLINATION": 89.6483, "RA_OF_ASC_NODE": 78.8947, "ARG_OF_PERICENTER": 214.3065, "MEAN_ANOMALY": 205.7501, "EPHEMERIS_TYPE": 0, "CLASSIFICATION_TYPE": "U", "NORAD_CAT_ID": 10457, "ELEMENT_SET_NO": 999, "REV_AT_EPOCH": 36630, "BSTAR": 0.00021655131, "MEAN_MOTION_DOT": 1.46e-06, "MEAN_MOTION_DDOT": 0}, "tle": {"line1": "1 10457U 77106A   25338.32951418  .00000146  00000+0  21655-3 0  9994", "line2": "2 10457  89.6483  78.8947 0024634 214.3065 205.7501 13.48941689366301"}}, "geometry": {"type": "Point", "coordinates": [-99.49057152194283, -77.82924649015541]}}, {"type": "Feature", "properties": {"norad_id": 12458, "name": "NOVA 1", "group": "nnss", "lat": 9.449213305947374, "lon": -88.52750950569173, "alt_km": 1165.7948097176877, "timestamp": "2025-12-04T19:33:59.872671+00:00", "meta": {"OBJECT_NAME": "NOVA 1", "OBJECT_ID": "1981-044A", "EPOCH": "2025-12-04T08:05:42.491904", "MEAN_MOTION": 13.23277067, "ECCENTRICITY": 0.0015613, "INCLINATION": 89.8522, "RA_OF_ASC_NODE": 91.5039, "ARG_OF_PERICENTER": 124.6939, "MEAN_ANOMALY": 289.9394, "EPHEMERIS_TYPE": 0, "CLASSIFICATION_TYPE": "U", "NORAD_CAT_ID": 12458, "ELEMENT_SET_NO": 999, "REV_AT_EPOCH": 15075, "BSTAR": 0.00015908377, "MEAN_MOTION_DOT": 7.6e-07, "MEAN_MOTION_DDOT": 0}, "tle": {"line1": "1 12458U 81044A   25338.33729736  .00000076  00000+0  15908-3 0  9996", "line2": "2 12458  89.8522  91.5039 0015613 124.6939 289.9394 13.23277067150753"}}, "geometry": {"type": "Point", "coordinates": [-88.52750950569173, 9.449213305947374]}}, {"type": "Feature", "properties": {"norad_id": 15362, "name": "NOVA 3", "group": "nnss", "lat": 49.88723584503026, "lon": 80.29573590078932, "alt_km": 1155.2916093604208, "timestamp": "2025-12-04T19:33:59.872680+00:00", "meta": {"OBJECT_NAME": "NOVA 3", "OBJECT_ID": "1984-110A", "EPOCH": "2025-12-04T06:52:42.007584", "MEAN_MOTION": 13.23042925, "ECCENTRICITY": 0.00311858, "INCLINATION": 90.1225, "RA_OF_ASC_NODE": 80.435, "ARG_OF_PERICENTER": 355.6972, "MEAN_ANOMALY": 57.3469, "EPHEMERIS_TYPE": 0, "CLASSIFICATION_TYPE": "U", "NORAD_CAT_ID": 15362, "ELEMENT_SET_NO": 999, "REV_AT_EPOCH": 98587, "BSTAR": 0.00010339977, "MEAN_MOTION_DOT": 5.2e-07, "MEAN_MOTION_DDOT": 0}, "tle": {"line1": "1 15362U 84110A   25338.28659731  .00000052  00000+0  10340-3 0  9990", "line2": "2 15362  90.1225  80.4350 0031185 355.6972  57.3469 13.23042925985875"}}, "geometry": {"type": "Point", "coordinates": [80.29573590078932, 49.88723584503026]}}, {"type": "Feature", "properties": {"norad_id": 15935, "name": "OSCAR 30", "group": "nnss", "lat": 60.36511547299209, "lon": -79.99275039203165, "alt_km": 994.5008326123643, "timestamp": "2025-12-04T19:33:59.872690+00:00", "meta": {"OBJECT_NAME": "OSCAR 30", "OBJECT_ID": "1985-066A", "EPOCH": "2025-12-04T06:44:34.611360", "MEAN_MOTION": 13.36076281, "ECCENTRICITY": 0.01693598, "INCLINATION": 90.1647, "RA_OF_ASC_NODE": 99.7089, "ARG_OF_PERICENTER": 107.5138, "MEAN_ANOMALY": 323.1138, "EPHEMERIS_TYPE": 0, "CLASSIFICATION_TYPE": "U", "NORAD_CAT_ID": 15935, "ELEMENT_SET_NO": 999, "REV_AT_EPOCH": 96340, "BSTAR": 0.00025897485, "MEAN_MOTION_DOT": 1.54e-06, "MEAN_MOTION_DDOT": 0}, "tle": {"line1": "1 15935U 85066A   25338.28095615  .00000154  00000+0  25897-3 0  9998", "line2": "2 15935  90.1647  99.7089 0169359 107.5138 323.1138 13.36076281963402"}}, "geometry": {"type": "Point", "coordinates": [-79.99275039203165, 60.36511547299209]}}, {"type": "Feature", "properties": {"norad_id": 15936, "name": "OSCAR 24", "group": "nnss", "lat": -20.59117331389581, "lon": -87.90195111298488, "alt_km": 1123.1081580309701, "timestamp": "2025-12-04T19:33:59.872699+00:00", "meta": {"OBJECT_NAME": "OSCAR 24", "OBJECT_ID": "1985-066B", "EPOCH": "2025-12-04T08:04:07.846752", "MEAN_MOTION": 13.35933904, "ECCENTRICITY": 0.01703747, "INCLINATION": 90.1787, "RA_OF_ASC_NODE": 92.1568, "ARG_OF_PERICENTER": 113.7971, "MEAN_ANOMALY": 302.043, "EPHEMERIS_TYPE": 0, "CLASSIFICATION_TYPE": "U", "NORAD_CAT_ID": 15936, "ELEMENT_SET_NO": 999, "REV_AT_EPOCH": 96531, "BSTAR": 0.00020194951, "MEAN_MOTION_DOT": 1.22e-06, "MEAN_MOTION_DDOT": 0}, "tle": {"line1": "1 15936U 85066B   25338.33620193  .00000122  00000+0  20195-3 0  9991", "line2": "2 15936  90.1787  92.1568 0170374 113.7971 302.0430 13.35933904965316"}}, "geometry": {"type": "Point", "coordinates": [-87.90195111298488, -20.59117331389581]}}]}